[{"OBJECT_NAME":"STARLINK-11340 [DTC]","OBJECT_ID":"2024-195D","EPOCH":"2026-01-09T02:39:57.143520","MEAN_MOTION":15.69714616,"ECCENTRICITY":0.00014207,"INCLINATION":53.1592,"RA_OF_ASC_NODE":320.1445,"ARG_OF_PERICENTER":102.0516,"MEAN_ANOMALY":258.0662,"EPHEMERIS_TYPE":0,"CLASSIFICATION_TYPE":"U","NORAD_CAT_ID":61690,"ELEMENT_SET_NO":999,"REV_AT_EPOCH":6967,"BSTAR":-2.878876e-6,"MEAN_MOTION_DOT":-9.38e-6,"MEAN_MOTION_DDOT":0},{"OBJECT_NAME":"STARLINK-11339 [DTC]","OBJECT_ID":"2024-195E","EPOCH":"2026-01-09T13:07:37.087392","MEAN_MOTION":15.69706698,"ECCENTRICITY":0.00010748,"INCLINATION":53.1588,"RA_OF_ASC_NODE":317.8803,"ARG_OF_PERICENTER":104.6577,"MEAN_ANOMALY":255.456,"EPHEMERIS_TYPE":0,"CLASSIFICATION_TYPE":"U","NORAD_CAT_ID":61691,"ELEMENT_SET_NO":999,"REV_AT_EPOCH":6974,"BSTAR":-1.1380292e-5,"MEAN_MOTION_DOT":-1.967e-5,"MEAN_MOTION_DDOT":0},{"OBJECT_NAME":"STARLINK-11315 [DTC]","OBJECT_ID":"2024-195F","EPOCH":"2026-01-09T13:14:41.154144","MEAN_MOTION":15.69703418,"ECCENTRICITY":0.00014782,"INCLINATION":53.1588,"RA_OF_ASC_NODE":317.9128,"ARG_OF_PERICENTER":108.6086,"MEAN_ANOMALY":251.5092,"EPHEMERIS_TYPE":0,"CLASSIFICATION_TYPE":"U","NORAD_CAT_ID":61692,"ELEMENT_SET_NO":999,"REV_AT_EPOCH":6974,"BSTAR":-2.083509e-6,"MEAN_MOTION_DOT":-8.41e-6,"MEAN_MOTION_DDOT":0},{"OBJECT_NAME":"STARLINK-11366 [DTC]","OBJECT_ID":"2024-195G","EPOCH":"2026-01-09T03:50:27.974400","MEAN_MOTION":15.69696741,"ECCENTRICITY":0.00014266,"INCLINATION":53.1592,"RA_OF_ASC_NODE":319.7312,"ARG_OF_PERICENTER":87.305,"MEAN_ANOMALY":272.8131,"EPHEMERIS_TYPE":0,"CLASSIFICATION_TYPE":"U","NORAD_CAT_ID":61693,"ELEMENT_SET_NO":999,"REV_AT_EPOCH":6968,"BSTAR":-3.3316821e-5,"MEAN_MOTION_DOT":-4.621e-5,"MEAN_MOTION_DDOT":0},{"OBJECT_NAME":"STARLINK-11348 [DTC]","OBJECT_ID":"2024-195H","EPOCH":"2026-01-09T03:43:23.746944","MEAN_MOTION":15.69697126,"ECCENTRICITY":0.00011968,"INCLINATION":53.1592,"RA_OF_ASC_NODE":319.698,"ARG_OF_PERICENTER":89.9404,"MEAN_ANOMALY":270.1751,"EPHEMERIS_TYPE":0,"CLASSIFICATION_TYPE":"U","NORAD_CAT_ID":61694,"ELEMENT_SET_NO":999,"REV_AT_EPOCH":6968,"BSTAR":-1.0359021e-5,"MEAN_MOTION_DOT":-1.843e-5,"MEAN_MOTION_DDOT":0},{"OBJECT_NAME":"STARLINK-11327 [DTC]","OBJECT_ID":"2024-195J","EPOCH":"2026-01-09T03:36:18.961344","MEAN_MOTION":15.69729755,"ECCENTRICITY":0.00014148,"INCLINATION":53.1588,"RA_OF_ASC_NODE":319.6683,"ARG_OF_PERICENTER":67.2887,"MEAN_ANOMALY":292.828,"EPHEMERIS_TYPE":0,"CLASSIFICATION_TYPE":"U","NORAD_CAT_ID":61695,"ELEMENT_SET_NO":999,"REV_AT_EPOCH":6968,"BSTAR":-4.7196283e-5,"MEAN_MOTION_DOT":-6.307e-5,"MEAN_MOTION_DDOT":0},{"OBJECT_NAME":"STARLINK-11341 [DTC]","OBJECT_ID":"2024-195K","EPOCH":"2026-01-09T03:29:16.272672","MEAN_MOTION":15.69693762,"ECCENTRICITY":0.00010939,"INCLINATION":53.1578,"RA_OF_ASC_NODE":319.6335,"ARG_OF_PERICENTER":93.1274,"MEAN_ANOMALY":266.9869,"EPHEMERIS_TYPE":0,"CLASSIFICATION_TYPE":"U","NORAD_CAT_ID":61696,"ELEMENT_SET_NO":999,"REV_AT_EPOCH":6968,"BSTAR":-1.6126193e-5,"MEAN_MOTION_DOT":-2.54e-5,"MEAN_MOTION_DDOT":0},{"OBJECT_NAME":"STARLINK-11346 [DTC]","OBJECT_ID":"2024-195L","EPOCH":"2026-01-09T03:22:11.807616","MEAN_MOTION":15.69702732,"ECCENTRICITY":8.522e-5,"INCLINATION":53.1583,"RA_OF_ASC_NODE":319.5985,"ARG_OF_PERICENTER":86.5972,"MEAN_ANOMALY":273.5143,"EPHEMERIS_TYPE":0,"CLASSIFICATION_TYPE":"U","NORAD_CAT_ID":61697,"ELEMENT_SET_NO":999,"REV_AT_EPOCH":6968,"BSTAR":-5.005842e-6,"MEAN_MOTION_DOT":-1.194e-5,"MEAN_MOTION_DDOT":0},{"OBJECT_NAME":"STARLINK-11296 [DTC]","OBJECT_ID":"2024-195N","EPOCH":"2026-01-09T13:49:52.055616","MEAN_MOTION":15.69696021,"ECCENTRICITY":0.0001219,"INCLINATION":53.1591,"RA_OF_ASC_NODE":317.3384,"ARG_OF_PERICENTER":84.8838,"MEAN_ANOMALY":275.2319,"EPHEMERIS_TYPE":0,"CLASSIFICATION_TYPE":"U","NORAD_CAT_ID":61699,"ELEMENT_SET_NO":999,"REV_AT_EPOCH":6975,"BSTAR":1.6458235e-5,"MEAN_MOTION_DOT":1.404e-5,"MEAN_MOTION_DDOT":0},{"OBJECT_NAME":"STARLINK-32349","OBJECT_ID":"2024-195P","EPOCH":"2026-01-09T11:16:51.925152","MEAN_MOTION":15.30176799,"ECCENTRICITY":0.00017681,"INCLINATION":53.1616,"RA_OF_ASC_NODE":70.5038,"ARG_OF_PERICENTER":63.0347,"MEAN_ANOMALY":297.0834,"EPHEMERIS_TYPE":0,"CLASSIFICATION_TYPE":"U","NORAD_CAT_ID":61700,"ELEMENT_SET_NO":999,"REV_AT_EPOCH":6811,"BSTAR":-3.3897642e-5,"MEAN_MOTION_DOT":-1.362e-5,"MEAN_MOTION_DDOT":0},{"OBJECT_NAME":"STARLINK-32461","OBJECT_ID":"2024-195Q","EPOCH":"2026-01-09T09:29:06.356544","MEAN_MOTION":15.30198801,"ECCENTRICITY":0.00011957,"INCLINATION":53.1598,"RA_OF_ASC_NODE":70.7444,"ARG_OF_PERICENTER":117.8405,"MEAN_ANOMALY":242.2717,"EPHEMERIS_TYPE":0,"CLASSIFICATION_TYPE":"U","NORAD_CAT_ID":61701,"ELEMENT_SET_NO":999,"REV_AT_EPOCH":6810,"BSTAR":4.2523619e-5,"MEAN_MOTION_DOT":9.0e-6,"MEAN_MOTION_DDOT":0},{"OBJECT_NAME":"STARLINK-32299","OBJECT_ID":"2024-195R","EPOCH":"2026-01-09T10:43:23.570112","MEAN_MOTION":15.30196775,"ECCENTRICITY":0.0001103,"INCLINATION":53.1596,"RA_OF_ASC_NODE":70.3564,"ARG_OF_PERICENTER":79.0931,"MEAN_ANOMALY":281.0194,"EPHEMERIS_TYPE":0,"CLASSIFICATION_TYPE":"U","NORAD_CAT_ID":61702,"ELEMENT_SET_NO":999,"REV_AT_EPOCH":6818,"BSTAR":2.456022e-6,"MEAN_MOTION_DOT":-2.86e-6,"MEAN_MOTION_DDOT":0},{"OBJECT_NAME":"STARLINK-32335","OBJECT_ID":"2024-195S","EPOCH":"2026-01-09T07:22:59.774592","MEAN_MOTION":15.30822182,"ECCENTRICITY":0.00017046,"INCLINATION":53.1593,"RA_OF_ASC_NODE":70.9127,"ARG_OF_PERICENTER":68.1277,"MEAN_ANOMALY":291.9905,"EPHEMERIS_TYPE":0,"CLASSIFICATION_TYPE":"U","NORAD_CAT_ID":61703,"ELEMENT_SET_NO":999,"REV_AT_EPOCH":6816,"BSTAR":0.00011616954,"MEAN_MOTION_DOT":3.147e-5,"MEAN_MOTION_DDOT":0},{"OBJECT_NAME":"STARLINK-32387","OBJECT_ID":"2024-195T","EPOCH":"2026-01-09T10:13:00.060096","MEAN_MOTION":15.30192254,"ECCENTRICITY":0.00015263,"INCLINATION":53.1616,"RA_OF_ASC_NODE":70.2243,"ARG_OF_PERICENTER":91.2312,"MEAN_ANOMALY":268.8864,"EPHEMERIS_TYPE":0,"CLASSIFICATION_TYPE":"U","NORAD_CAT_ID":61704,"ELEMENT_SET_NO":999,"REV_AT_EPOCH":6811,"BSTAR":-3.097716e-6,"MEAN_MOTION_DOT":-4.51e-6,"MEAN_MOTION_DDOT":0},{"OBJECT_NAME":"STARLINK-32515","OBJECT_ID":"2024-195U","EPOCH":"2026-01-09T10:11:38.963328","MEAN_MOTION":15.30189999,"ECCENTRICITY":0.00012526,"INCLINATION":53.161,"RA_OF_ASC_NODE":70.93,"ARG_OF_PERICENTER":82.6015,"MEAN_ANOMALY":277.5128,"EPHEMERIS_TYPE":0,"CLASSIFICATION_TYPE":"U","NORAD_CAT_ID":61705,"ELEMENT_SET_NO":999,"REV_AT_EPOCH":6810,"BSTAR":-1.4791448e-5,"MEAN_MOTION_DOT":-7.97e-6,"MEAN_MOTION_DDOT":0},{"OBJECT_NAME":"STARLINK-32533","OBJECT_ID":"2024-195V","EPOCH":"2026-01-09T10:16:02.503200","MEAN_MOTION":15.30192236,"ECCENTRICITY":0.00013147,"INCLINATION":53.1615,"RA_OF_ASC_NODE":70.2396,"ARG_OF_PERICENTER":84.9598,"MEAN_ANOMALY":275.1552,"EPHEMERIS_TYPE":0,"CLASSIFICATION_TYPE":"U","NORAD_CAT_ID":61706,"ELEMENT_SET_NO":999,"REV_AT_EPOCH":6811,"BSTAR":2.3221109e-5,"MEAN_MOTION_DOT":3.28e-6,"MEAN_MOTION_DDOT":0},{"OBJECT_NAME":"STARLINK-32376","OBJECT_ID":"2024-196A","EPOCH":"2026-01-09T06:27:25.484544","MEAN_MOTION":15.30188998,"ECCENTRICITY":0.00012989,"INCLINATION":53.1612,"RA_OF_ASC_NODE":17.0179,"ARG_OF_PERICENTER":96.8501,"MEAN_ANOMALY":263.2648,"EPHEMERIS_TYPE":0,"CLASSIFICATION_TYPE":"U","NORAD_CAT_ID":61707,"ELEMENT_SET_NO":999,"REV_AT_EPOCH":6807,"BSTAR":-1.4579345e-5,"MEAN_MOTION_DOT":-7.91e-6,"MEAN_MOTION_DDOT":0},{"OBJECT_NAME":"STARLINK-32402","OBJECT_ID":"2024-196B","EPOCH":"2026-01-09T07:08:27.478464","MEAN_MOTION":15.30189185,"ECCENTRICITY":0.00013712,"INCLINATION":53.1606,"RA_OF_ASC_NODE":17.1917,"ARG_OF_PERICENTER":67.8903,"MEAN_ANOMALY":292.2243,"EPHEMERIS_TYPE":0,"CLASSIFICATION_TYPE":"U","NORAD_CAT_ID":61708,"ELEMENT_SET_NO":999,"REV_AT_EPOCH":6806,"BSTAR":-1.4250157e-5,"MEAN_MOTION_DOT":-7.81e-6,"MEAN_MOTION_DDOT":0},{"OBJECT_NAME":"STARLINK-32314","OBJECT_ID":"2024-196C","EPOCH":"2026-01-09T06:47:10.563360","MEAN_MOTION":15.30196744,"ECCENTRICITY":0.00015367,"INCLINATION":53.1623,"RA_OF_ASC_NODE":17.0993,"ARG_OF_PERICENTER":92.3312,"MEAN_ANOMALY":267.7865,"EPHEMERIS_TYPE":0,"CLASSIFICATION_TYPE":"U","NORAD_CAT_ID":61709,"ELEMENT_SET_NO":999,"REV_AT_EPOCH":6806,"BSTAR":2.6896862e-5,"MEAN_MOTION_DOT":4.37e-6,"MEAN_MOTION_DDOT":0},{"OBJECT_NAME":"STARLINK-32404","OBJECT_ID":"2024-196D","EPOCH":"2026-01-09T07:38:50.678304","MEAN_MOTION":15.30192463,"ECCENTRICITY":0.00014857,"INCLINATION":53.1602,"RA_OF_ASC_NODE":17.3273,"ARG_OF_PERICENTER":90.5389,"MEAN_ANOMALY":269.5782,"EPHEMERIS_TYPE":0,"CLASSIFICATION_TYPE":"U","NORAD_CAT_ID":61710,"ELEMENT_SET_NO":999,"REV_AT_EPOCH":6806,"BSTAR":-1.1546639e-5,"MEAN_MOTION_DOT":-7.01e-6,"MEAN_MOTION_DDOT":0},{"OBJECT_NAME":"STARLINK-32312","OBJECT_ID":"2024-196E","EPOCH":"2026-01-09T06:36:32.396544","MEAN_MOTION":15.30193114,"ECCENTRICITY":0.00014558,"INCLINATION":53.1611,"RA_OF_ASC_NODE":17.0516,"ARG_OF_PERICENTER":92.6676,"MEAN_ANOMALY":267.4492,"EPHEMERIS_TYPE":0,"CLASSIFICATION_TYPE":"U","NORAD_CAT_ID":61711,"ELEMENT_SET_NO":999,"REV_AT_EPOCH":6806,"BSTAR":-1.5403779e-5,"MEAN_MOTION_DOT":-8.15e-6,"MEAN_MOTION_DDOT":0},{"OBJECT_NAME":"STARLINK-32343","OBJECT_ID":"2024-196F","EPOCH":"2026-01-09T07:23:39.055488","MEAN_MOTION":15.30191471,"ECCENTRICITY":0.00014516,"INCLINATION":53.1629,"RA_OF_ASC_NODE":17.2623,"ARG_OF_PERICENTER":96.343,"MEAN_ANOMALY":263.7736,"EPHEMERIS_TYPE":0,"CLASSIFICATION_TYPE":"U","NORAD_CAT_ID":61712,"ELEMENT_SET_NO":999,"REV_AT_EPOCH":6806,"BSTAR":1.143561e-6,"MEAN_MOTION_DOT":-3.25e-6,"MEAN_MOTION_DDOT":0},{"OBJECT_NAME":"STARLINK-32467","OBJECT_ID":"2024-196G","EPOCH":"2026-01-09T06:21:30.587040","MEAN_MOTION":15.30188743,"ECCENTRICITY":0.00013302,"INCLINATION":53.161,"RA_OF_ASC_NODE":17.7009,"ARG_OF_PERICENTER":90.0596,"MEAN_ANOMALY":270.0557,"EPHEMERIS_TYPE":0,"CLASSIFICATION_TYPE":"U","NORAD_CAT_ID":61713,"ELEMENT_SET_NO":999,"REV_AT_EPOCH":6805,"BSTAR":1.200698e-6,"MEAN_MOTION_DOT":-3.24e-6,"MEAN_MOTION_DDOT":0}]
